NORAD_CAT_ID,OBJECT_NAME,OBJECT_TYPE,EPOCH,MEAN_MOTION,ECCENTRICITY,INCLINATION,RA_OF_ASC_NODE,ARG_OF_PERICENTER,MEAN_ANOMALY,BSTAR,MEAN_MOTION_DOT,MEAN_MOTION_DDOT,TLE_LINE0,TLE_LINE1,TLE_LINE2,SEMIMAJOR_AXIS,PERIOD,APOGEE,PERIGEE,DECAYED
53413.0,STARLINK-4500,PAYLOAD,2024-04-22 18:57:36,15.08836743,0.0001421,53.2186,313.2437,111.6685,248.4459,1.5986e-05,-3.4e-07,0.0,0 STARLINK-4500,1 53413U 22097AB  24113.79000333 -.00000034  00000-0  15986-4 0  9993,2 53413  53.2186 313.2437 0001421 111.6685 248.4459 15.08836743 95108,6917.89,95.438,540.738,538.772,0.0
53413.0,STARLINK-4500,PAYLOAD,2024-04-23 20:23:47,15.08835291,0.0001427,53.2186,308.4861,72.9373,287.1775,7.3883e-05,8.88e-06,0.0,0 STARLINK-4500,1 53413U 22097AB  24114.84985209  .00000888  00000-0  73883-4 0  9990,2 53413  53.2186 308.4861 0001427  72.9373 287.1775 15.08835291 94774,6917.895,95.438,540.747,538.773,0.0
53413.0,STARLINK-4500,PAYLOAD,2024-04-23 21:59:09,15.08841421,0.0001354,53.2185,308.184,99.6323,260.4822,0.0001488,2.081e-05,0.0,0 STARLINK-4500,1 53413U 22097AB  24114.91608726  .00002081  00000-0  14880-3 0  9992,2 53413  53.2185 308.1840 0001354  99.6323 260.4822 15.08841421 95272,6917.876,95.437,540.678,538.804,0.0
53413.0,STARLINK-4500,PAYLOAD,2024-04-24 12:17:38,15.08840874,0.0002021,53.2174,305.5107,146.0471,214.065,-0.00014405,-2.58e-05,0.0,0 STARLINK-4500,1 53413U 22097AB  24115.51225061 -.00002580  00000-0 -14405-3 0  9995,2 53413  53.2174 305.5107 0002021 146.0471 214.0650 15.08840874 95365,6917.878,95.437,541.141,538.345,0.0
53413.0,STARLINK-4500,PAYLOAD,2024-04-24 20:14:33,15.08849713,0.0001132,53.218,304.0246,103.5864,256.5254,0.00036471,5.523e-05,0.0,0 STARLINK-4500,1 53413U 22097AB  24115.84344804  .00005523  00000-0  36471-3 0  9993,2 53413  53.2180 304.0246 0001132 103.5864 256.5254 15.08849713 95414,6917.851,95.437,540.499,538.933,0.0
53413.0,STARLINK-4500,PAYLOAD,2024-04-25 12:08:25,15.08840346,0.0001232,53.2183,301.0539,97.1921,262.9211,2.8709e-05,1.69e-06,0.0,0 STARLINK-4500,1 53413U 22097AB  24116.50585543  .00000169  00000-0  28709-4 0  9991,2 53413  53.2183 301.0539 0001232  97.1921 262.9211 15.08840346 95026,6917.879,95.438,540.597,538.892,0.0
53413.0,STARLINK-4500,PAYLOAD,2024-04-25 18:29:58,15.08841232,0.0001226,53.2184,299.865,83.4998,276.6133,5.7722e-05,6.31e-06,0.0,0 STARLINK-4500,1 53413U 22097AB  24116.77081540  .00000631  00000-0  57722-4 0  9999,2 53413  53.2184 299.8650 0001226  83.4998 276.6133 15.08841232 95558,6917.877,95.437,540.59,538.893,0.0
53413.0,STARLINK-4500,PAYLOAD,2024-04-26 05:37:40,15.08845262,0.0001367,53.2187,297.7825,71.2862,288.8279,8.6905e-05,1.096e-05,0.0,0 STARLINK-4500,1 53413U 22097AB  24117.23449325  .00001096  00000-0  86905-4 0  9991,2 53413  53.2187 297.7825 0001367  71.2862 288.8279 15.08845262 95624,6917.864,95.437,540.675,538.784,0.0
53413.0,STARLINK-4500,PAYLOAD,2024-04-26 18:20:45,15.08850334,0.0001181,53.2189,295.4004,99.7148,260.3977,0.00010187,1.334e-05,0.0,0 STARLINK-4500,1 53413U 22097AB  24117.76440994  .00001334  00000-0  10187-3 0  9995,2 53413  53.2189 295.4004 0001181  99.7148 260.3977 15.08850334 95217,6917.849,95.437,540.531,538.897,0.0
53413.0,STARLINK-4500,PAYLOAD,2024-04-26 21:31:30,15.08855871,0.0001296,53.2183,294.8044,98.5611,261.5528,0.00015778,2.225e-05,0.0,0 STARLINK-4500,1 53413U 22097AB  24117.89688530  .00002225  00000-0  15778-3 0  9990,2 53413  53.2183 294.8044 0001296  98.5611 261.5528 15.08855871 95729,6917.832,95.437,540.593,538.8,0.0
53413.0,STARLINK-4500,PAYLOAD,2024-04-27 11:50:00,15.08837249,8.32e-05,53.219,292.1299,80.2502,279.8584,-2.0767e-06,-3.21e-06,0.0,0 STARLINK-4500,1 53413U 22097AB  24118.49305594 -.00000321  00000-0 -20767-5 0  9996,2 53413  53.2190 292.1299 0000832  80.2502 279.8584 15.08837249 95321,6917.889,95.438,540.329,539.178,0.0
53413.0,STARLINK-4500,PAYLOAD,2024-04-27 18:11:32,15.08844456,0.0001206,53.2187,290.9422,84.9635,275.1495,8.7757e-05,1.109e-05,0.0,0 STARLINK-4500,1 53413U 22097AB  24118.75801213  .00001109  00000-0  87757-4 0  9998,2 53413  53.2187 290.9422 0001206  84.9635 275.1495 15.08844456 95367,6917.867,95.437,540.566,538.897,0.0
53413.0,STARLINK-4500,PAYLOAD,2024-04-28 11:40:47,15.08833854,0.0001226,53.2185,287.6714,82.687,277.4261,-1.3004e-05,-4.95e-06,0.0,0 STARLINK-4500,1 53413U 22097AB  24119.48665910 -.00000495  00000-0 -13004-4 0  9994,2 53413  53.2185 287.6714 0001226  82.6870 277.4261 15.08833854 95478,6917.899,95.438,540.612,538.916,0.0
53413.0,STARLINK-4500,PAYLOAD,2024-04-28 14:51:33,15.08829484,0.0001184,53.2179,287.0779,82.9112,277.2015,-7.499e-05,-1.481e-05,0.0,0 STARLINK-4500,1 53413U 22097AB  24119.61914097 -.00001481  00000-0 -74990-4 0  9999,2 53413  53.2179 287.0779 0001184  82.9112 277.2015 15.08829484 95986,6917.913,95.438,540.597,538.958,0.0
53413.0,STARLINK-4500,PAYLOAD,2024-04-28 18:02:20,15.08835621,0.0001108,53.2184,286.4785,92.3459,267.766,7.2755e-07,-2.76e-06,0.0,0 STARLINK-4500,1 53413U 22097AB  24119.75162052 -.00000276  00000-0  72755-6 0  9999,2 53413  53.2184 286.4785 0001108  92.3459 267.7660 15.08835621 96001,6917.894,95.438,540.525,538.992,0.0
53413.0,STARLINK-4500,PAYLOAD,2024-04-29 14:42:20,15.08837923,0.0001148,53.2197,282.6182,104.8807,255.2312,0.00010843,1.438e-05,0.0,0 STARLINK-4500,1 53413U 22097AB  24120.61273990  .00001438  00000-0  10843-3 0  9997,2 53413  53.2197 282.6182 0001148 104.8807 255.2312 15.08837923 96131,6917.887,95.438,540.546,538.958,0.0
53413.0,STARLINK-4500,PAYLOAD,2024-04-29 17:53:06,15.08842296,0.0001155,53.2195,282.0238,106.5245,253.5874,0.00014761,2.062e-05,0.0,0 STARLINK-4500,1 53413U 22097AB  24120.74521687  .00002062  00000-0  14761-3 0  9997,2 53413  53.2195 282.0238 0001155 106.5245 253.5874 15.08842296 95668,6917.873,95.437,540.537,538.939,0.0
53413.0,STARLINK-4500,PAYLOAD,2024-04-30 14:33:08,15.08837702,0.0001092,53.22,278.1585,109.9496,250.1614,0.00011459,1.536e-05,0.0,0 STARLINK-4500,1 53413U 22097AB  24121.60634342  .00001536  00000-0  11459-3 0  9992,2 53413  53.2200 278.1585 0001092 109.9496 250.1614 15.08837702 96281,6917.887,95.438,540.508,538.997,0.0
53413.0,STARLINK-4500,PAYLOAD,2024-04-30 17:43:54,15.08838467,0.0001132,53.22,277.5635,105.2391,254.8726,0.00017152,2.443e-05,0.0,0 STARLINK-4500,1 53413U 22097AB  24121.73882222  .00002443  00000-0  17152-3 0  9992,2 53413  53.2200 277.5635 0001132 105.2391 254.8726 15.08838467 95810,6917.885,95.438,540.533,538.967,0.0
53413.0,STARLINK-4500,PAYLOAD,2024-05-01 03:16:13,15.08840135,0.0001079,53.2198,275.7792,101.1517,258.9597,0.00012803,1.75e-05,0.0,0 STARLINK-4500,1 53413U 22097AB  24122.13626218  .00001750  00000-0  12803-3 0  9996,2 53413  53.2198 275.7792 0001079 101.1517 258.9597 15.08840135 96362,6917.88,95.438,540.491,538.999,0.0
53413.0,STARLINK-4500,PAYLOAD,2024-05-01 19:10:03,15.08839678,9.81e-05,53.2186,272.8048,95.5834,264.527,0.00030691,4.6e-05,0.0,0 STARLINK-4500,1 53413U 22097AB  24122.79865736  .00004600  00000-0  30691-3 0  9990,2 53413  53.2186 272.8048 0000981  95.5834 264.5270 15.08839678 95977,6917.881,95.438,540.425,539.068,0.0
53413.0,STARLINK-4500,PAYLOAD,2024-05-02 09:28:32,15.08838364,0.0001209,53.2148,270.1276,84.9252,275.1878,8.7361e-05,1.103e-05,0.0,0 STARLINK-4500,1 53413U 22097AB  24123.39482118  .00001103  00000-0  87361-4 0  9998,2 53413  53.2148 270.1276 0001209  84.9252 275.1878 15.08838364 96063,6917.885,95.438,540.587,538.914,0.0
53413.0,STARLINK-4500,PAYLOAD,2024-05-02 14:14:42,15.08831335,9.13e-05,53.2163,269.2351,84.3421,275.7675,2.5073e-05,1.11e-06,0.0,0 STARLINK-4500,1 53413U 22097AB  24123.59354662  .00000111  00000-0  25073-4 0  9992,2 53413  53.2163 269.2351 0000913  84.3421 275.7675 15.08831335 96585,6917.907,95.438,540.403,539.14,0.0
53413.0,STARLINK-4500,PAYLOAD,2024-05-03 02:57:46,15.08847425,0.0001152,53.2181,266.8567,81.8093,278.3029,9.4747e-05,1.221e-05,0.0,0 STARLINK-4500,1 53413U 22097AB  24124.12345419  .00001221  00000-0  94747-4 0  9999,2 53413  53.2181 266.8567 0001152  81.8093 278.3029 15.08847425 96174,6917.858,95.437,540.52,538.926,0.0
53413.0,STARLINK-4500,PAYLOAD,2024-05-03 14:05:27,15.08856305,0.0001254,53.2172,264.7751,85.131,274.9825,0.00011399,1.528e-05,0.0,0 STARLINK-4500,1 53413U 22097AB  24124.58712663  .00001528  00000-0  11399-3 0  9999,2 53413  53.2172 264.7751 0001254  85.1310 274.9825 15.08856305 96733,6917.831,95.437,540.563,538.828,0.0
53413.0,STARLINK-4500,PAYLOAD,2024-05-03 15:40:50,15.08858618,0.0001166,53.2169,264.4773,86.8138,273.2988,0.00015994,2.26e-05,0.0,0 STARLINK-4500,1 53413U 22097AB  24124.65336398  .00002260  00000-0  15994-3 0  9993,2 53413  53.2169 264.4773 0001166  86.8138 273.2988 15.08858618 96256,6917.823,95.436,540.495,538.882,0.0
53413.0,STARLINK-4500,PAYLOAD,2024-05-04 02:48:33,15.08847185,0.0001129,53.2146,262.3974,78.7692,281.3427,0.00018727,2.694e-05,0.0,0 STARLINK-4500,1 53413U 22097AB  24125.11705128  .00002694  00000-0  18727-3 0  9994,2 53413  53.2146 262.3974 0001129  78.7692 281.3427 15.08847185 96328,6917.858,95.437,540.504,538.942,0.0
53413.0,STARLINK-4500,PAYLOAD,2024-05-04 12:20:53,15.08828605,0.0001204,53.2166,260.6119,99.0556,261.0573,-7.302e-06,-4.04e-06,0.0,0 STARLINK-4500,1 53413U 22097AB  24125.51450349 -.00000404  00000-0 -73020-5 0  9998,2 53413  53.2166 260.6119 0001204  99.0556 261.0573 15.08828605 96380,6917.915,95.438,540.613,538.947,0.0
53413.0,STARLINK-4500,PAYLOAD,2024-05-05 12:11:39,15.08849969,0.0001161,53.2172,256.1511,107.7943,252.3176,0.0004657,7.133e-05,0.0,0 STARLINK-4500,1 53413U 22097AB  24126.50809712  .00007133  00000-0  46570-3 0  9992,2 53413  53.2172 256.1511 0001161 107.7943 252.3176 15.08849969 96537,6917.85,95.437,540.518,538.912,0.0
53413.0,STARLINK-4500,PAYLOAD,2024-05-05 13:47:02,15.08851724,0.0001151,53.2172,255.8539,105.3773,254.7346,0.0008746,0.00013663,0.0,0 STARLINK-4500,1 53413U 22097AB  24126.57433887  .00013663  00000-0  87460-3 0  9993,2 53413  53.2172 255.8539 0001151 105.3773 254.7346 15.08851724 97030,6917.845,95.437,540.506,538.913,0.0
